[{"OBJECT_NAME":"TEVEL2-2","OBJECT_ID":"2025-052K","EPOCH":"2026-03-09T15:33:48.895776","MEAN_MOTION":15.30343745,"ECCENTRICITY":0.0004693,"INCLINATION":97.3987,"RA_OF_ASC_NODE":324.77,"ARG_OF_PERICENTER":105.793,"MEAN_ANOMALY":254.3828,"EPHEMERIS_TYPE":0,"CLASSIFICATION_TYPE":"U","NORAD_CAT_ID":63219,"ELEMENT_SET_NO":999,"REV_AT_EPOCH":5485,"BSTAR":0.00069428,"MEAN_MOTION_DOT":0.00020339,"MEAN_MOTION_DDOT":0},{"OBJECT_NAME":"STARLINK-35349","OBJECT_ID":"2025-221N","EPOCH":"2026-03-09T07:59:43.238976","MEAN_MOTION":15.30199749,"ECCENTRICITY":0.00011931,"INCLINATION":53.1591,"RA_OF_ASC_NODE":90.3675,"ARG_OF_PERICENTER":85.882,"MEAN_ANOMALY":274.2317,"EPHEMERIS_TYPE":0,"CLASSIFICATION_TYPE":"U","NORAD_CAT_ID":65835,"ELEMENT_SET_NO":999,"REV_AT_EPOCH":2467,"BSTAR":0.00076326249,"MEAN_MOTION_DOT":0.00022314,"MEAN_MOTION_DDOT":0}]
